{"type": "FeatureCollection", "features": [ {"type": "Feature", "properties": {"norad_id": 31883, "name": "FENGYUN 1C DEB", "group": "fengyun-1c-debris", "lat": 8.854846634902591, "lon": 100.937868208645, "alt_km": 742.3614317576466, "timestamp": "2025-12-27T09:28:56.760933+00:00", "meta": {"OBJECT_NAME": "FENGYUN 1C DEB", "OBJECT_ID": "1999-025CKJ", "EPOCH": "2025-12-27T00:31:58.168128", "MEAN_MOTION": 14.67880048, "ECCENTRICITY": 0.0124398, "INCLINATION": 99.0281, "RA_OF_ASC_NODE": 279.1076, "ARG_OF_PERICENTER": 25.5351, "MEAN_ANOMALY": 335.1925, "EPHEMERIS_TYPE": 0, "CLASSIFICATION_TYPE": "U", "NORAD_CAT_ID": 31883, "ELEMENT_SET_NO": 999, "REV_AT_EPOCH": 98188, "BSTAR": 0.0012605, "MEAN_MOTION_DOT": 8.041e-05, "MEAN_MOTION_DDOT": 0}, "tle": {"line1": "1 31883U 99025CKJ 25361.02220102  .00008041  00000+0  12605-2 0  9992", "line2": "2 31883  99.0281 279.1076 0124398  25.5351 335.1925 14.67880048981882"}}, "geometry": {"type": "Point", "coordinates": [100.937868208645, 8.854846634902591]}}, {"type": "Feature", "properties": {"norad_id": 31887, "name": "FENGYUN 1C DEB", "group": "fengyun-1c-debris", "lat": 32.64433503059361, "lon": -118.70565343740746, "alt_km": 714.8409690804529, "timestamp": "2025-12-27T09:28:56.760943+00:00", "meta": {"OBJECT_NAME": "FENGYUN 1C DEB", "OBJECT_ID": "1999-025CKN", "EPOCH": "2025-12-24T21:30:44.983008", "MEAN_MOTION": 14.57863059, "ECCENTRICITY": 0.0023958, "INCLINATION": 99.5327, "RA_OF_ASC_NODE": 52.2551, "ARG_OF_PERICENTER": 326.7507, "MEAN_ANOMALY": 33.2181, "EPHEMERIS_TYPE": 0, "CLASSIFICATION_TYPE": "U", "NORAD_CAT_ID": 31887, "ELEMENT_SET_NO": 999, "REV_AT_EPOCH": 96785, "BSTAR": 0.00075645, "MEAN_MOTION_DOT": 3.42e-05, "MEAN_MOTION_DDOT": 0}, "tle": {"line1": "1 31887U 99025CKN 25358.89635397  .00003420  00000+0  75645-3 0  9993", "line2": "2 31887  99.5327  52.2551 0023958 326.7507  33.2181 14.57863059967852"}}, "geometry": {"type": "Point", "coordinates": [-118.70565343740746, 32.64433503059361]}}, {"type": "Feature", "properties": {"norad_id": 31888, "name": "FENGYUN 1C DEB", "group": "fengyun-1c-debris", "lat": 2.6617985455422177, "lon": -71.78138117024781, "alt_km": 793.0454914367056, "timestamp": "2025-12-27T09:28:56.760953+00:00", "meta": {"OBJECT_NAME": "FENGYUN 1C DEB", "OBJECT_ID": "1999-025CKP", "EPOCH": "2025-12-26T18:23:57.957792", "MEAN_MOTION": 14.34078212, "ECCENTRICITY": 0.00176663, "INCLINATION": 99.1537, "RA_OF_ASC_NODE": 287.9833, "ARG_OF_PERICENTER": 172.7868, "MEAN_ANOMALY": 187.3572, "EPHEMERIS_TYPE": 0, "CLASSIFICATION_TYPE": "U", "NORAD_CAT_ID": 31888, "ELEMENT_SET_NO": 999, "REV_AT_EPOCH": 95838, "BSTAR": 0.0021238508, "MEAN_MOTION_DOT": 5.905e-05, "MEAN_MOTION_DDOT": 0}, "tle": {"line1": "1 31888U 99025CKP 25360.76664303  .00005905  00000+0  21239-2 0  9991", "line2": "2 31888  99.1537 287.9833 0017666 172.7868 187.3572 14.34078212958387"}}, "geometry": {"type": "Point", "coordinates": [-71.78138117024781, 2.6617985455422177]}}, {"type": "Feature", "properties": {"norad_id": 31890, "name": "FENGYUN 1C DEB", "group": "fengyun-1c-debris", "lat": -46.04702270694436, "lon": -176.69318571291916, "alt_km": 818.9028411950931, "timestamp": "2025-12-27T09:28:56.760963+00:00", "meta": {"OBJECT_NAME": "FENGYUN 1C DEB", "OBJECT_ID": "1999-025CKR", "EPOCH": "2025-12-18T06:26:12.801408", "MEAN_MOTION": 14.10135343, "ECCENTRICITY": 0.00717599, "INCLINATION": 98.7186, "RA_OF_ASC_NODE": 3.6189, "ARG_OF_PERICENTER": 226.3843, "MEAN_ANOMALY": 133.1361, "EPHEMERIS_TYPE": 0, "CLASSIFICATION_TYPE": "U", "NORAD_CAT_ID": 31890, "ELEMENT_SET_NO": 999, "REV_AT_EPOCH": 64230, "BSTAR": 0.00011349556, "MEAN_MOTION_DOT": 1.63e-06, "MEAN_MOTION_DDOT": 0}, "tle": {"line1": "1 31890U 99025CKR 25352.26820372  .00000163  00000+0  11350-3 0  9995", "line2": "2 31890  98.7186   3.6189 0071759 226.3843 133.1361 14.10135343642304"}}, "geometry": {"type": "Point", "coordinates": [-176.69318571291916, -46.04702270694436]}}, {"type": "Feature", "properties": {"norad_id": 31891, "name": "FENGYUN 1C DEB", "group": "fengyun-1c-debris", "lat": -19.410661564732813, "lon": 19.406400488248167, "alt_km": 1178.761594450145, "timestamp": "2025-12-27T09:28:56.760973+00:00", "meta": {"OBJECT_NAME": "FENGYUN 1C DEB", "OBJECT_ID": "1999-025CKS", "EPOCH": "2025-12-22T06:32:52.690848", "MEAN_MOTION": 13.66212929, "ECCENTRICITY": 0.02251424, "INCLINATION": 99.4019, "RA_OF_ASC_NODE": 11.0849, "ARG_OF_PERICENTER": 158.7468, "MEAN_ANOMALY": 202.3212, "EPHEMERIS_TYPE": 0, "CLASSIFICATION_TYPE": "U", "NORAD_CAT_ID": 31891, "ELEMENT_SET_NO": 999, "REV_AT_EPOCH": 92540, "BSTAR": 0.00046222559, "MEAN_MOTION_DOT": 4.12e-06, "MEAN_MOTION_DDOT": 0}, "tle": {"line1": "1 31891U 99025CKS 25356.27283207  .00000412  00000+0  46223-3 0  9995", "line2": "2 31891  99.4019  11.0849 0225142 158.7468 202.3212 13.66212929925407"}}, "geometry": {"type": "Point", "coordinates": [19.406400488248167, -19.410661564732813]}}, {"type": "Feature", "properties": {"norad_id": 31892, "name": "FENGYUN 1C DEB", "group": "fengyun-1c-debris", "lat": -77.97237933288396, "lon": -137.2872186885155, "alt_km": 641.1717429161008, "timestamp": "2025-12-27T09:28:56.760983+00:00", "meta": {"OBJECT_NAME": "FENGYUN 1C DEB", "OBJECT_ID": "1999-025CKT", "EPOCH": "2025-12-22T06:33:48.015360", "MEAN_MOTION": 14.41236891, "ECCENTRICITY": 0.02014657, "INCLINATION": 99.2968, "RA_OF_ASC_NODE": 166.8939, "ARG_OF_PERICENTER": 259.0043, "MEAN_ANOMALY": 98.8424, "EPHEMERIS_TYPE": 0, "CLASSIFICATION_TYPE": "U", "NORAD_CAT_ID": 31892, "ELEMENT_SET_NO": 999, "REV_AT_EPOCH": 65043, "BSTAR": 0.00063446246, "MEAN_MOTION_DOT": 2.547e-05, "MEAN_MOTION_DDOT": 0}, "tle": {"line1": "1 31892U 99025CKT 25356.27347240  .00002547  00000+0  63446-3 0  9991", "line2": "2 31892  99.2968 166.8939 0201465 259.0043  98.8424 14.41236891650433"}}, "geometry": {"type": "Point", "coordinates": [-137.2872186885155, -77.97237933288396]}}, {"type": "Feature", "properties": {"norad_id": 31893, "name": "FENGYUN 1C DEB", "group": "fengyun-1c-debris", "lat": 36.14673509102635, "lon": -45.55281075912448, "alt_km": 728.6561302309283, "timestamp": "2025-12-27T09:28:56.760994+00:00", "meta": {"OBJECT_NAME": "FENGYUN 1C DEB", "OBJECT_ID": "1999-025CKU", "EPOCH": "2025-12-27T03:02:24.053856", "MEAN_MOTION": 14.63835935, "ECCENTRICITY": 0.0173814, "INCLINATION": 99.069, "RA_OF_ASC_NODE": 320.852, "ARG_OF_PERICENTER": 282.4464, "MEAN_ANOMALY": 138.7339, "EPHEMERIS_TYPE": 0, "CLASSIFICATION_TYPE": "U", "NORAD_CAT_ID": 31893, "ELEMENT_SET_NO": 999, "REV_AT_EPOCH": 98615, "BSTAR": 0.00045819, "MEAN_MOTION_DOT": 2.91e-05, "MEAN_MOTION_DDOT": 0}, "tle": {"line1": "1 31893U 99025CKU 25361.12666729  .00002910  00000+0  45819-3 0  9996", "line2": "2 31893  99.0690 320.8520 0173814 282.4464 138.7339 14.63835935986153"}}, "geometry": {"type": "Point", "coordinates": [-45.55281075912448, 36.14673509102635]}}, {"type": "Feature", "properties": {"norad_id": 31895, "name": "FENGYUN 1C DEB", "group": "fengyun-1c-debris", "lat": -58.500402394795245, "lon": 44.78428702943911, "alt_km": 1038.6139792764616, "timestamp": "2025-12-27T09:28:56.761004+00:00", "meta": {"OBJECT_NAME": "FENGYUN 1C DEB", "OBJECT_ID": "1999-025CKW", "EPOCH": "2025-12-24T08:27:46.780992", "MEAN_MOTION": 13.75578503, "ECCENTRICITY": 0.02273209, "INCLINATION": 99.0939, "RA_OF_ASC_NODE": 26.7284, "ARG_OF_PERICENTER": 199.0497, "MEAN_ANOMALY": 160.2048, "EPHEMERIS_TYPE": 0, "CLASSIFICATION_TYPE": "U", "NORAD_CAT_ID": 31895, "ELEMENT_SET_NO": 999, "REV_AT_EPOCH": 62056, "BSTAR": 0.0020613035, "MEAN_MOTION_DOT": 2.358e-05, "MEAN_MOTION_DDOT": 0}, "tle": {"line1": "1 31895U 99025CKW 25358.35262478  .00002358  00000+0  20613-2 0  9992", "line2": "2 31895  99.0939  26.7284 0227320 199.0497 160.2048 13.75578503620565"}}, "geometry": {"type": "Point", "coordinates": [44.78428702943911, -58.500402394795245]}}, {"type": "Feature", "properties": {"norad_id": 31898, "name": "FENGYUN 1C DEB", "group": "fengyun-1c-debris", "lat": -0.7494315031429383, "lon": -132.77505448371699, "alt_km": 769.4589205229931, "timestamp": "2025-12-27T09:28:56.761015+00:00", "meta": {"OBJECT_NAME": "FENGYUN 1C DEB", "OBJECT_ID": "1999-025CKZ", "EPOCH": "2025-12-20T09:03:23.166144", "MEAN_MOTION": 14.68533537, "ECCENTRICITY": 0.01439518, "INCLINATION": 98.707, "RA_OF_ASC_NODE": 219.6404, "ARG_OF_PERICENTER": 195.5546, "MEAN_ANOMALY": 164.1211, "EPHEMERIS_TYPE": 0, "CLASSIFICATION_TYPE": "U", "NORAD_CAT_ID": 31898, "ELEMENT_SET_NO": 999, "REV_AT_EPOCH": 65824, "BSTAR": 0.00069711283, "MEAN_MOTION_DOT": 4.672e-05, "MEAN_MOTION_DDOT": 0}, "tle": {"line1": "1 31898U 99025CKZ 25354.37735146  .00004672  00000+0  69711-3 0  9994", "line2": "2 31898  98.7070 219.6404 0143951 195.5546 164.1211 14.68533537658242"}}, "geometry": {"type": "Point", "coordinates": [-132.77505448371699, -0.7494315031429383]}}, {"type": "Feature", "properties": {"norad_id": 31899, "name": "FENGYUN 1C DEB", "group": "fengyun-1c-debris", "lat": -74.46284171223046, "lon": -161.95934984932833, "alt_km": 1055.416548189639, "timestamp": "2025-12-27T09:28:56.761319+00:00", "meta": {"OBJECT_NAME": "FENGYUN 1C DEB", "OBJECT_ID": "1999-025CLA", "EPOCH": "2025-12-26T23:34:00.107616", "MEAN_MOTION": 13.83558866, "ECCENTRICITY": 0.0181632, "INCLINATION": 102.0824, "RA_OF_ASC_NODE": 67.9021, "ARG_OF_PERICENTER": 123.6867, "MEAN_ANOMALY": 238.1742, "EPHEMERIS_TYPE": 0, "CLASSIFICATION_TYPE": "U", "NORAD_CAT_ID": 31899, "ELEMENT_SET_NO": 999, "REV_AT_EPOCH": 67761, "BSTAR": 0.0013039, "MEAN_MOTION_DOT": 1.568e-05, "MEAN_MOTION_DDOT": 0}, "tle": {"line1": "1 31899U 99025CLA 25360.98194569  .00001568  00000+0  13039-2 0  9999", "line2": "2 31899 102.0824  67.9021 0181632 123.6867 238.1742 13.83558866677615"}}, "geometry": {"type": "Point", "coordinates": [-161.95934984932833, -74.46284171223046]}}]}